{
"type": "FeatureCollection",
"name": "kadikoy_nodes",
"crs": { "type": "name", "properties": { "name": "urn:ogc:def:crs:OGC:1.3:CRS84" } },
"features": [
{ "type": "Feature", "properties": { "osmid": 245940945, "y": 40.983565, "x": 29.0288445, "street_count": 3, "highway": null }, "geometry": { "type": "Point", "coordinates": [ 29.0288445, 40.983565 ] } },
{ "type": "Feature", "properties": { "osmid": 245940950, "y": 40.9829687, "x": 29.0324318, "street_count": 3, "highway": null }, "geometry": { "type": "Point", "coordinates": [ 29.0324318, 40.9829687 ] } },
{ "type": "Feature", "properties": { "osmid": 245940952, "y": 40.9831758, "x": 29.0329231, "street_count": 3, "highway": null }, "geometry": { "type": "Point", "coordinates": [ 29.0329231, 40.9831758 ] } },
{ "type": "Feature", "properties": { "osmid": 278471334, "y": 40.9914894, "x": 29.0234276, "street_count": 3, "highway": null }, "geometry": { "type": "Point", "coordinates": [ 29.0234276, 40.9914894 ] } },
{ "type": "Feature", "properties": { "osmid": 278471371, "y": 40.9894332, "x": 29.0216692, "street_count": 3, "highway": null }, "geometry": { "type": "Point", "coordinates": [ 29.0216692, 40.9894332 ] } },
{ "type": "Feature", "properties": { "osmid": 494598060, "y": 40.9876441, "x": 29.0217565, "street_count": 4, "highway": null }, "geometry": { "type": "Point", "coordinates": [ 29.0217565, 40.9876441 ] } },
{ "type": "Feature", "properties": { "osmid": 494598065, "y": 40.9892084, "x": 29.0214358, "street_count": 3, "highway": null }, "geometry": { "type": "Point", "coordinates": [ 29.0214358, 40.9892084 ] } },
{ "type": "Feature", "properties": { "osmid": 495665067, "y": 40.9886035, "x": 29.0232278, "street_count": 3, "highway": null }, "geometry": { "type": "Point", "coordinates": [ 29.0232278, 40.9886035 ] } },
{ "type": "Feature", "properties": { "osmid": 495665070, "y": 40.9891732, "x": 29.0221989, "street_count": 3, "highway": null }, "geometry": { "type": "Point", "coordinates": [ 29.0221989, 40.9891732 ] } },
{ "type": "Feature", "properties": { "osmid": 495672344, "y": 40.9881577, "x": 29.0227095, "street_count": 3, "highway": null }, "geometry": { "type": "Point", "coordinates": [ 29.0227095, 40.9881577 ] } },
{ "type": "Feature", "properties": { "osmid": 495672346, "y": 40.985343, "x": 29.0210463, "street_count": 3, "highway": null }, "geometry": { "type": "Point", "coordinates": [ 29.0210463, 40.985343 ] } },
{ "type": "Feature", "properties": { "osmid": 495672347, "y": 40.9846751, "x": 29.0209537, "street_count": 3, "highway": null }, "geometry": { "type": "Point", "coordinates": [ 29.0209537, 40.9846751 ] } },
{ "type": "Feature", "properties": { "osmid": 495673616, "y": 40.9878114, "x": 29.0252713, "street_count": 3, "highway": null }, "geometry": { "type": "Point", "coordinates": [ 29.0252713, 40.9878114 ] } },
{ "type": "Feature", "properties": { "osmid": 495673617, "y": 40.987812, "x": 29.024614, "street_count": 3, "highway": null }, "geometry": { "type": "Point", "coordinates": [ 29.024614, 40.987812 ] } },
{ "type": "Feature", "properties": { "osmid": 495673618, "y": 40.9878655, "x": 29.0242706, "street_count": 3, "highway": null }, "geometry": { "type": "Point", "coordinates": [ 29.0242706, 40.9878655 ] } },
{ "type": "Feature", "properties": { "osmid": 495677019, "y": 40.9887985, "x": 29.0249653, "street_count": 3, "highway": null }, "geometry": { "type": "Point", "coordinates": [ 29.0249653, 40.9887985 ] } },
{ "type": "Feature", "properties": { "osmid": 495691862, "y": 40.9805667, "x": 29.0237805, "street_count": 5, "highway": null }, "geometry": { "type": "Point", "coordinates": [ 29.0237805, 40.9805667 ] } },
{ "type": "Feature", "properties": { "osmid": 495691874, "y": 40.9851358, "x": 29.0248838, "street_count": 4, "highway": null }, "geometry": { "type": "Point", "coordinates": [ 29.0248838, 40.9851358 ] } },
{ "type": "Feature", "properties": { "osmid": 495698666, "y": 40.9833243, "x": 29.0237359, "street_count": 3, "highway": null }, "geometry": { "type": "Point", "coordinates": [ 29.0237359, 40.9833243 ] } },
{ "type": "Feature", "properties": { "osmid": 495698669, "y": 40.9835587, "x": 29.0229033, "street_count": 3, "highway": null }, "geometry": { "type": "Point", "coordinates": [ 29.0229033, 40.9835587 ] } },
{ "type": "Feature", "properties": { "osmid": 495725879, "y": 40.9838407, "x": 29.0217471, "street_count": 4, "highway": null }, "geometry": { "type": "Point", "coordinates": [ 29.0217471, 40.9838407 ] } },
{ "type": "Feature", "properties": { "osmid": 495725909, "y": 40.9848897, "x": 29.0221952, "street_count": 4, "highway": null }, "geometry": { "type": "Point", "coordinates": [ 29.0221952, 40.9848897 ] } },
{ "type": "Feature", "properties": { "osmid": 495725913, "y": 40.9844966, "x": 29.0220267, "street_count": 3, "highway": null }, "geometry": { "type": "Point", "coordinates": [ 29.0220267, 40.9844966 ] } },
{ "type": "Feature", "properties": { "osmid": 495753834, "y": 40.9892675, "x": 29.0269114, "street_count": 3, "highway": null }, "geometry": { "type": "Point", "coordinates": [ 29.0269114, 40.9892675 ] } },
{ "type": "Feature", "properties": { "osmid": 495758327, "y": 40.9876625, "x": 29.0261907, "street_count": 4, "highway": null }, "geometry": { "type": "Point", "coordinates": [ 29.0261907, 40.9876625 ] } },
{ "type": "Feature", "properties": { "osmid": 495761309, "y": 40.9874734, "x": 29.0254331, "street_count": 3, "highway": null }, "geometry": { "type": "Point", "coordinates": [ 29.0254331, 40.9874734 ] } },
{ "type": "Feature", "properties": { "osmid": 495761314, "y": 40.987334, "x": 29.0276801, "street_count": 4, "highway": null }, "geometry": { "type": "Point", "coordinates": [ 29.0276801, 40.987334 ] } },
{ "type": "Feature", "properties": { "osmid": 495766032, "y": 40.9875306, "x": 29.0268215, "street_count": 3, "highway": null }, "geometry": { "type": "Point", "coordinates": [ 29.0268215, 40.9875306 ] } },
{ "type": "Feature", "properties": { "osmid": 495774142, "y": 40.9843468, "x": 29.0271823, "street_count": 3, "highway": null }, "geometry": { "type": "Point", "coordinates": [ 29.0271823, 40.9843468 ] } },
{ "type": "Feature", "properties": { "osmid": 495774145, "y": 40.9841183, "x": 29.027401, "street_count": 3, "highway": null }, "geometry": { "type": "Point", "coordinates": [ 29.027401, 40.9841183 ] } },
{ "type": "Feature", "properties": { "osmid": 495774147, "y": 40.9839057, "x": 29.0276192, "street_count": 3, "highway": null }, "geometry": { "type": "Point", "coordinates": [ 29.0276192, 40.9839057 ] } },
{ "type": "Feature", "properties": { "osmid": 495779826, "y": 40.98472, "x": 29.0269801, "street_count": 3, "highway": null }, "geometry": { "type": "Point", "coordinates": [ 29.0269801, 40.98472 ] } },
{ "type": "Feature", "properties": { "osmid": 495785146, "y": 40.9888428, "x": 29.0228574, "street_count": 3, "highway": null }, "geometry": { "type": "Point", "coordinates": [ 29.0228574, 40.9888428 ] } },
{ "type": "Feature", "properties": { "osmid": 495789332, "y": 40.9863493, "x": 29.023645, "street_count": 3, "highway": null }, "geometry": { "type": "Point", "coordinates": [ 29.023645, 40.9863493 ] } },
{ "type": "Feature", "properties": { "osmid": 495791555, "y": 40.9857409, "x": 29.0251657, "street_count": 4, "highway": null }, "geometry": { "type": "Point", "coordinates": [ 29.0251657, 40.9857409 ] } },
{ "type": "Feature", "properties": { "osmid": 495791585, "y": 40.9864824, "x": 29.023263, "street_count": 4, "highway": null }, "geometry": { "type": "Point", "coordinates": [ 29.023263, 40.9864824 ] } },
{ "type": "Feature", "properties": { "osmid": 495797799, "y": 40.9873692, "x": 29.0254892, "street_count": 3, "highway": null }, "geometry": { "type": "Point", "coordinates": [ 29.0254892, 40.9873692 ] } },
{ "type": "Feature", "properties": { "osmid": 495797806, "y": 40.9872687, "x": 29.0242752, "street_count": 3, "highway": null }, "geometry": { "type": "Point", "coordinates": [ 29.0242752, 40.9872687 ] } },
{ "type": "Feature", "properties": { "osmid": 495797812, "y": 40.988288, "x": 29.0229022, "street_count": 3, "highway": null }, "geometry": { "type": "Point", "coordinates": [ 29.0229022, 40.988288 ] } },
{ "type": "Feature", "properties": { "osmid": 495797821, "y": 40.9875352, "x": 29.0240233, "street_count": 3, "highway": null }, "geometry": { "type": "Point", "coordinates": [ 29.0240233, 40.9875352 ] } },
{ "type": "Feature", "properties": { "osmid": 495797827, "y": 40.9874094, "x": 29.0239314, "street_count": 3, "highway": null }, "geometry": { "type": "Point", "coordinates": [ 29.0239314, 40.9874094 ] } },
{ "type": "Feature", "properties": { "osmid": 495797832, "y": 40.9874415, "x": 29.0243989, "street_count": 3, "highway": null }, "geometry": { "type": "Point", "coordinates": [ 29.0243989, 40.9874415 ] } },
{ "type": "Feature", "properties": { "osmid": 495799512, "y": 40.9862155, "x": 29.0254154, "street_count": 3, "highway": null }, "geometry": { "type": "Point", "coordinates": [ 29.0254154, 40.9862155 ] } },
{ "type": "Feature", "properties": { "osmid": 495799521, "y": 40.9868051, "x": 29.0239495, "street_count": 3, "highway": null }, "geometry": { "type": "Point", "coordinates": [ 29.0239495, 40.9868051 ] } },
{ "type": "Feature", "properties": { "osmid": 495800952, "y": 40.987253, "x": 29.0238233, "street_count": 3, "highway": null }, "geometry": { "type": "Point", "coordinates": [ 29.0238233, 40.987253 ] } },
{ "type": "Feature", "properties": { "osmid": 495800958, "y": 40.9874965, "x": 29.0229892, "street_count": 3, "highway": null }, "geometry": { "type": "Point", "coordinates": [ 29.0229892, 40.9874965 ] } },
{ "type": "Feature", "properties": { "osmid": 495803037, "y": 40.984914, "x": 29.0255356, "street_count": 3, "highway": null }, "geometry": { "type": "Point", "coordinates": [ 29.0255356, 40.984914 ] } },
{ "type": "Feature", "properties": { "osmid": 495803038, "y": 40.9857911, "x": 29.0261289, "street_count": 3, "highway": null }, "geometry": { "type": "Point", "coordinates": [ 29.0261289, 40.9857911 ] } },
{ "type": "Feature", "properties": { "osmid": 495804949, "y": 40.9857239, "x": 29.0261811, "street_count": 3, "highway": null }, "geometry": { "type": "Point", "coordinates": [ 29.0261811, 40.9857239 ] } },
{ "type": "Feature", "properties": { "osmid": 495804950, "y": 40.9874691, "x": 29.0270888, "street_count": 3, "highway": null }, "geometry": { "type": "Point", "coordinates": [ 29.0270888, 40.9874691 ] } },
{ "type": "Feature", "properties": { "osmid": 495805321, "y": 40.9858288, "x": 29.0278405, "street_count": 4, "highway": null }, "geometry": { "type": "Point", "coordinates": [ 29.0278405, 40.9858288 ] } },
{ "type": "Feature", "properties": { "osmid": 495805325, "y": 40.9863553, "x": 29.0265343, "street_count": 3, "highway": null }, "geometry": { "type": "Point", "coordinates": [ 29.0265343, 40.9863553 ] } },
{ "type": "Feature", "properties": { "osmid": 558821171, "y": 40.9859382, "x": 29.0229044, "street_count": 4, "highway": null }, "geometry": { "type": "Point", "coordinates": [ 29.0229044, 40.9859382 ] } },
{ "type": "Feature", "properties": { "osmid": 558821187, "y": 40.9875902, "x": 29.0213406, "street_count": 3, "highway": null }, "geometry": { "type": "Point", "coordinates": [ 29.0213406, 40.9875902 ] } },
{ "type": "Feature", "properties": { "osmid": 558821222, "y": 40.9854424, "x": 29.0258921, "street_count": 4, "highway": null }, "geometry": { "type": "Point", "coordinates": [ 29.0258921, 40.9854424 ] } },
{ "type": "Feature", "properties": { "osmid": 558821228, "y": 40.986111, "x": 29.0270872, "street_count": 4, "highway": null }, "geometry": { "type": "Point", "coordinates": [ 29.0270872, 40.986111 ] } },
{ "type": "Feature", "properties": { "osmid": 678317499, "y": 40.9841247, "x": 29.0291319, "street_count": 4, "highway": null }, "geometry": { "type": "Point", "coordinates": [ 29.0291319, 40.9841247 ] } },
{ "type": "Feature", "properties": { "osmid": 678317533, "y": 40.9854256, "x": 29.0295835, "street_count": 4, "highway": null }, "geometry": { "type": "Point", "coordinates": [ 29.0295835, 40.9854256 ] } },
{ "type": "Feature", "properties": { "osmid": 678317620, "y": 40.9850514, "x": 29.0309389, "street_count": 3, "highway": null }, "geometry": { "type": "Point", "coordinates": [ 29.0309389, 40.9850514 ] } },
{ "type": "Feature", "properties": { "osmid": 678317694, "y": 40.9839072, "x": 29.0300093, "street_count": 4, "highway": null }, "geometry": { "type": "Point", "coordinates": [ 29.0300093, 40.9839072 ] } },
{ "type": "Feature", "properties": { "osmid": 678317739, "y": 40.9853823, "x": 29.0276922, "street_count": 3, "highway": null }, "geometry": { "type": "Point", "coordinates": [ 29.0276922, 40.9853823 ] } },
{ "type": "Feature", "properties": { "osmid": 678317754, "y": 40.9837473, "x": 29.0308669, "street_count": 4, "highway": null }, "geometry": { "type": "Point", "coordinates": [ 29.0308669, 40.9837473 ] } },
{ "type": "Feature", "properties": { "osmid": 803882221, "y": 40.9805144, "x": 29.0273747, "street_count": 3, "highway": null }, "geometry": { "type": "Point", "coordinates": [ 29.0273747, 40.9805144 ] } },
{ "type": "Feature", "properties": { "osmid": 803882225, "y": 40.9815908, "x": 29.0261266, "street_count": 3, "highway": null }, "geometry": { "type": "Point", "coordinates": [ 29.0261266, 40.9815908 ] } },
{ "type": "Feature", "properties": { "osmid": 803882227, "y": 40.9813737, "x": 29.0268182, "street_count": 3, "highway": null }, "geometry": { "type": "Point", "coordinates": [ 29.0268182, 40.9813737 ] } },
{ "type": "Feature", "properties": { "osmid": 803882232, "y": 40.9808125, "x": 29.0261234, "street_count": 3, "highway": null }, "geometry": { "type": "Point", "coordinates": [ 29.0261234, 40.9808125 ] } },
{ "type": "Feature", "properties": { "osmid": 803882290, "y": 40.983884, "x": 29.0250195, "street_count": 3, "highway": null }, "geometry": { "type": "Point", "coordinates": [ 29.0250195, 40.983884 ] } },
{ "type": "Feature", "properties": { "osmid": 803882295, "y": 40.9818199, "x": 29.0240082, "street_count": 3, "highway": null }, "geometry": { "type": "Point", "coordinates": [ 29.0240082, 40.9818199 ] } },
{ "type": "Feature", "properties": { "osmid": 803882303, "y": 40.9820238, "x": 29.0240948, "street_count": 3, "highway": null }, "geometry": { "type": "Point", "coordinates": [ 29.0240948, 40.9820238 ] } },
{ "type": "Feature", "properties": { "osmid": 803882305, "y": 40.9817719, "x": 29.0261291, "street_count": 3, "highway": null }, "geometry": { "type": "Point", "coordinates": [ 29.0261291, 40.9817719 ] } },
{ "type": "Feature", "properties": { "osmid": 803882307, "y": 40.9814143, "x": 29.0245833, "street_count": 3, "highway": null }, "geometry": { "type": "Point", "coordinates": [ 29.0245833, 40.9814143 ] } },
{ "type": "Feature", "properties": { "osmid": 803882309, "y": 40.9819319, "x": 29.0247622, "street_count": 3, "highway": null }, "geometry": { "type": "Point", "coordinates": [ 29.0247622, 40.9819319 ] } },
{ "type": "Feature", "properties": { "osmid": 803882313, "y": 40.9809016, "x": 29.0241339, "street_count": 3, "highway": null }, "geometry": { "type": "Point", "coordinates": [ 29.0241339, 40.9809016 ] } },
{ "type": "Feature", "properties": { "osmid": 803882323, "y": 40.9847497, "x": 29.0246508, "street_count": 3, "highway": null }, "geometry": { "type": "Point", "coordinates": [ 29.0246508, 40.9847497 ] } },
{ "type": "Feature", "properties": { "osmid": 803882329, "y": 40.9842248, "x": 29.0260523, "street_count": 3, "highway": null }, "geometry": { "type": "Point", "coordinates": [ 29.0260523, 40.9842248 ] } },
{ "type": "Feature", "properties": { "osmid": 803882336, "y": 40.9841035, "x": 29.0241968, "street_count": 4, "highway": null }, "geometry": { "type": "Point", "coordinates": [ 29.0241968, 40.9841035 ] } },
{ "type": "Feature", "properties": { "osmid": 808585149, "y": 40.981798, "x": 29.0267293, "street_count": 3, "highway": null }, "geometry": { "type": "Point", "coordinates": [ 29.0267293, 40.981798 ] } },
{ "type": "Feature", "properties": { "osmid": 808585174, "y": 40.9810009, "x": 29.0309666, "street_count": 1, "highway": null }, "geometry": { "type": "Point", "coordinates": [ 29.0309666, 40.9810009 ] } },
{ "type": "Feature", "properties": { "osmid": 808585183, "y": 40.9814771, "x": 29.0310073, "street_count": 3, "highway": null }, "geometry": { "type": "Point", "coordinates": [ 29.0310073, 40.9814771 ] } },
{ "type": "Feature", "properties": { "osmid": 808585305, "y": 40.9815809, "x": 29.0266743, "street_count": 3, "highway": null }, "geometry": { "type": "Point", "coordinates": [ 29.0266743, 40.9815809 ] } },
{ "type": "Feature", "properties": { "osmid": 808585327, "y": 40.9833393, "x": 29.0261903, "street_count": 3, "highway": null }, "geometry": { "type": "Point", "coordinates": [ 29.0261903, 40.9833393 ] } },
{ "type": "Feature", "properties": { "osmid": 808585335, "y": 40.9814289, "x": 29.0291861, "street_count": 3, "highway": null }, "geometry": { "type": "Point", "coordinates": [ 29.0291861, 40.9814289 ] } },
{ "type": "Feature", "properties": { "osmid": 808585339, "y": 40.9813887, "x": 29.0274248, "street_count": 4, "highway": null }, "geometry": { "type": "Point", "coordinates": [ 29.0274248, 40.9813887 ] } },
{ "type": "Feature", "properties": { "osmid": 808585353, "y": 40.9808688, "x": 29.0273971, "street_count": 4, "highway": null }, "geometry": { "type": "Point", "coordinates": [ 29.0273971, 40.9808688 ] } },
{ "type": "Feature", "properties": { "osmid": 968710940, "y": 40.9846322, "x": 29.0263174, "street_count": 4, "highway": null }, "geometry": { "type": "Point", "coordinates": [ 29.0263174, 40.9846322 ] } },
{ "type": "Feature", "properties": { "osmid": 1457277897, "y": 40.9791728, "x": 29.0228371, "street_count": 3, "highway": null }, "geometry": { "type": "Point", "coordinates": [ 29.0228371, 40.9791728 ] } },
{ "type": "Feature", "properties": { "osmid": 1457277898, "y": 40.9793729, "x": 29.0232754, "street_count": 3, "highway": null }, "geometry": { "type": "Point", "coordinates": [ 29.0232754, 40.9793729 ] } },
{ "type": "Feature", "properties": { "osmid": 1457277910, "y": 40.979601, "x": 29.0237488, "street_count": 3, "highway": null }, "geometry": { "type": "Point", "coordinates": [ 29.0237488, 40.979601 ] } },
{ "type": "Feature", "properties": { "osmid": 1457277911, "y": 40.9797689, "x": 29.0247932, "street_count": 1, "highway": null }, "geometry": { "type": "Point", "coordinates": [ 29.0247932, 40.9797689 ] } },
{ "type": "Feature", "properties": { "osmid": 1457277914, "y": 40.9797315, "x": 29.0218291, "street_count": 3, "highway": null }, "geometry": { "type": "Point", "coordinates": [ 29.0218291, 40.9797315 ] } },
{ "type": "Feature", "properties": { "osmid": 1457277928, "y": 40.9799162, "x": 29.0222725, "street_count": 4, "highway": null }, "geometry": { "type": "Point", "coordinates": [ 29.0222725, 40.9799162 ] } },
{ "type": "Feature", "properties": { "osmid": 1457277934, "y": 40.9801087, "x": 29.0227499, "street_count": 4, "highway": null }, "geometry": { "type": "Point", "coordinates": [ 29.0227499, 40.9801087 ] } },
{ "type": "Feature", "properties": { "osmid": 1457277936, "y": 40.9803199, "x": 29.0232419, "street_count": 4, "highway": null }, "geometry": { "type": "Point", "coordinates": [ 29.0232419, 40.9803199 ] } },
{ "type": "Feature", "properties": { "osmid": 1457277949, "y": 40.9806518, "x": 29.0217647, "street_count": 4, "highway": null }, "geometry": { "type": "Point", "coordinates": [ 29.0217647, 40.9806518 ] } },
{ "type": "Feature", "properties": { "osmid": 1457277952, "y": 40.9808356, "x": 29.022208, "street_count": 4, "highway": null }, "geometry": { "type": "Point", "coordinates": [ 29.022208, 40.9808356 ] } },
{ "type": "Feature", "properties": { "osmid": 1457277953, "y": 40.9808594, "x": 29.0271222, "street_count": 3, "highway": null }, "geometry": { "type": "Point", "coordinates": [ 29.0271222, 40.9808594 ] } },
{ "type": "Feature", "properties": { "osmid": 1457277955, "y": 40.9810225, "x": 29.0227112, "street_count": 4, "highway": null }, "geometry": { "type": "Point", "coordinates": [ 29.0227112, 40.9810225 ] } },
{ "type": "Feature", "properties": { "osmid": 1457277965, "y": 40.9814709, "x": 29.0223887, "street_count": 3, "highway": null }, "geometry": { "type": "Point", "coordinates": [ 29.0223887, 40.9814709 ] } },
{ "type": "Feature", "properties": { "osmid": 1457277967, "y": 40.981519, "x": 29.021748, "street_count": 3, "highway": null }, "geometry": { "type": "Point", "coordinates": [ 29.021748, 40.981519 ] } },
{ "type": "Feature", "properties": { "osmid": 1457277968, "y": 40.9815472, "x": 29.0213339, "street_count": 3, "highway": null }, "geometry": { "type": "Point", "coordinates": [ 29.0213339, 40.9815472 ] } },
{ "type": "Feature", "properties": { "osmid": 1457277971, "y": 40.9820472, "x": 29.0214023, "street_count": 1, "highway": null }, "geometry": { "type": "Point", "coordinates": [ 29.0214023, 40.9820472 ] } },
{ "type": "Feature", "properties": { "osmid": 1457277973, "y": 40.9822739, "x": 29.0232701, "street_count": 3, "highway": null }, "geometry": { "type": "Point", "coordinates": [ 29.0232701, 40.9822739 ] } },
{ "type": "Feature", "properties": { "osmid": 1457277979, "y": 40.9826441, "x": 29.021941, "street_count": 1, "highway": null }, "geometry": { "type": "Point", "coordinates": [ 29.021941, 40.9826441 ] } },
{ "type": "Feature", "properties": { "osmid": 1457277986, "y": 40.9836957, "x": 29.0223326, "street_count": 3, "highway": null }, "geometry": { "type": "Point", "coordinates": [ 29.0223326, 40.9836957 ] } },
{ "type": "Feature", "properties": { "osmid": 1457277987, "y": 40.9838866, "x": 29.0240555, "street_count": 3, "highway": null }, "geometry": { "type": "Point", "coordinates": [ 29.0240555, 40.9838866 ] } },
{ "type": "Feature", "properties": { "osmid": 1457277988, "y": 40.9840486, "x": 29.0232468, "street_count": 4, "highway": null }, "geometry": { "type": "Point", "coordinates": [ 29.0232468, 40.9840486 ] } },
{ "type": "Feature", "properties": { "osmid": 1457277989, "y": 40.9841669, "x": 29.0225036, "street_count": 4, "highway": null }, "geometry": { "type": "Point", "coordinates": [ 29.0225036, 40.9841669 ] } },
{ "type": "Feature", "properties": { "osmid": 1457277990, "y": 40.9842401, "x": 29.0219432, "street_count": 3, "highway": null }, "geometry": { "type": "Point", "coordinates": [ 29.0219432, 40.9842401 ] } },
{ "type": "Feature", "properties": { "osmid": 1457277992, "y": 40.9843836, "x": 29.0234679, "street_count": 4, "highway": null }, "geometry": { "type": "Point", "coordinates": [ 29.0234679, 40.9843836 ] } },
{ "type": "Feature", "properties": { "osmid": 1457277993, "y": 40.9845649, "x": 29.0245259, "street_count": 3, "highway": null }, "geometry": { "type": "Point", "coordinates": [ 29.0245259, 40.9845649 ] } },
{ "type": "Feature", "properties": { "osmid": 1457277994, "y": 40.9846266, "x": 29.0228153, "street_count": 4, "highway": null }, "geometry": { "type": "Point", "coordinates": [ 29.0228153, 40.9846266 ] } },
{ "type": "Feature", "properties": { "osmid": 1457277996, "y": 40.9848595, "x": 29.0238054, "street_count": 4, "highway": null }, "geometry": { "type": "Point", "coordinates": [ 29.0238054, 40.9848595 ] } },
{ "type": "Feature", "properties": { "osmid": 1457277997, "y": 40.9851225, "x": 29.0231477, "street_count": 4, "highway": null }, "geometry": { "type": "Point", "coordinates": [ 29.0231477, 40.9851225 ] } },
{ "type": "Feature", "properties": { "osmid": 1457277998, "y": 40.9851399, "x": 29.0215507, "street_count": 3, "highway": null }, "geometry": { "type": "Point", "coordinates": [ 29.0215507, 40.9851399 ] } },
{ "type": "Feature", "properties": { "osmid": 1457278000, "y": 40.985379, "x": 29.0225378, "street_count": 4, "highway": null }, "geometry": { "type": "Point", "coordinates": [ 29.0225378, 40.985379 ] } },
{ "type": "Feature", "properties": { "osmid": 1457278001, "y": 40.9854147, "x": 29.024179, "street_count": 4, "highway": null }, "geometry": { "type": "Point", "coordinates": [ 29.024179, 40.9854147 ] } },
{ "type": "Feature", "properties": { "osmid": 1457278002, "y": 40.9856248, "x": 29.0219128, "street_count": 4, "highway": null }, "geometry": { "type": "Point", "coordinates": [ 29.0219128, 40.9856248 ] } },
{ "type": "Feature", "properties": { "osmid": 1457278003, "y": 40.9856655, "x": 29.0235367, "street_count": 4, "highway": null }, "geometry": { "type": "Point", "coordinates": [ 29.0235367, 40.9856655 ] } },
{ "type": "Feature", "properties": { "osmid": 1457278005, "y": 40.9859724, "x": 29.0245732, "street_count": 3, "highway": null }, "geometry": { "type": "Point", "coordinates": [ 29.0245732, 40.9859724 ] } },
{ "type": "Feature", "properties": { "osmid": 1457278006, "y": 40.9861758, "x": 29.0222934, "street_count": 3, "highway": null }, "geometry": { "type": "Point", "coordinates": [ 29.0222934, 40.9861758 ] } },
{ "type": "Feature", "properties": { "osmid": 1457278007, "y": 40.9862353, "x": 29.023914, "street_count": 3, "highway": null }, "geometry": { "type": "Point", "coordinates": [ 29.023914, 40.9862353 ] } },
{ "type": "Feature", "properties": { "osmid": 1457278008, "y": 40.9864176, "x": 29.0297558, "street_count": 4, "highway": null }, "geometry": { "type": "Point", "coordinates": [ 29.0297558, 40.9864176 ] } },
{ "type": "Feature", "properties": { "osmid": 1457278012, "y": 40.9868369, "x": 29.0267617, "street_count": 3, "highway": null }, "geometry": { "type": "Point", "coordinates": [ 29.0267617, 40.9868369 ] } },
{ "type": "Feature", "properties": { "osmid": 1457278013, "y": 40.9870415, "x": 29.0283767, "street_count": 3, "highway": null }, "geometry": { "type": "Point", "coordinates": [ 29.0283767, 40.9870415 ] } },
{ "type": "Feature", "properties": { "osmid": 1457278014, "y": 40.9871567, "x": 29.0258481, "street_count": 3, "highway": null }, "geometry": { "type": "Point", "coordinates": [ 29.0258481, 40.9871567 ] } },
{ "type": "Feature", "properties": { "osmid": 1652678594, "y": 40.9896045, "x": 29.0213285, "street_count": 3, "highway": null }, "geometry": { "type": "Point", "coordinates": [ 29.0213285, 40.9896045 ] } },
{ "type": "Feature", "properties": { "osmid": 1718140686, "y": 40.983066, "x": 29.0311835, "street_count": 3, "highway": null }, "geometry": { "type": "Point", "coordinates": [ 29.0311835, 40.983066 ] } },
{ "type": "Feature", "properties": { "osmid": 1915743047, "y": 40.983625, "x": 29.0226176, "street_count": 3, "highway": null }, "geometry": { "type": "Point", "coordinates": [ 29.0226176, 40.983625 ] } },
{ "type": "Feature", "properties": { "osmid": 2370901305, "y": 40.9815926, "x": 29.0321025, "street_count": 1, "highway": null }, "geometry": { "type": "Point", "coordinates": [ 29.0321025, 40.9815926 ] } },
{ "type": "Feature", "properties": { "osmid": 2370901306, "y": 40.9817096, "x": 29.0310317, "street_count": 3, "highway": null }, "geometry": { "type": "Point", "coordinates": [ 29.0310317, 40.9817096 ] } },
{ "type": "Feature", "properties": { "osmid": 2370901358, "y": 40.9865762, "x": 29.0245145, "street_count": 3, "highway": null }, "geometry": { "type": "Point", "coordinates": [ 29.0245145, 40.9865762 ] } },
{ "type": "Feature", "properties": { "osmid": 2370901361, "y": 40.9866651, "x": 29.0255869, "street_count": 3, "highway": null }, "geometry": { "type": "Point", "coordinates": [ 29.0255869, 40.9866651 ] } },
{ "type": "Feature", "properties": { "osmid": 2370901445, "y": 40.9889376, "x": 29.0205728, "street_count": 4, "highway": null }, "geometry": { "type": "Point", "coordinates": [ 29.0205728, 40.9889376 ] } },
{ "type": "Feature", "properties": { "osmid": 2370901461, "y": 40.9901894, "x": 29.0196642, "street_count": 3, "highway": null }, "geometry": { "type": "Point", "coordinates": [ 29.0196642, 40.9901894 ] } },
{ "type": "Feature", "properties": { "osmid": 2433573120, "y": 40.9858225, "x": 29.0296962, "street_count": 3, "highway": null }, "geometry": { "type": "Point", "coordinates": [ 29.0296962, 40.9858225 ] } },
{ "type": "Feature", "properties": { "osmid": 2433573130, "y": 40.9862176, "x": 29.0280159, "street_count": 3, "highway": null }, "geometry": { "type": "Point", "coordinates": [ 29.0280159, 40.9862176 ] } },
{ "type": "Feature", "properties": { "osmid": 2442359936, "y": 40.984026, "x": 29.0265788, "street_count": 4, "highway": null }, "geometry": { "type": "Point", "coordinates": [ 29.0265788, 40.984026 ] } },
{ "type": "Feature", "properties": { "osmid": 2442359952, "y": 40.9858685, "x": 29.0212997, "street_count": 3, "highway": null }, "geometry": { "type": "Point", "coordinates": [ 29.0212997, 40.9858685 ] } },
{ "type": "Feature", "properties": { "osmid": 2442359956, "y": 40.9864731, "x": 29.0215699, "street_count": 3, "highway": null }, "geometry": { "type": "Point", "coordinates": [ 29.0215699, 40.9864731 ] } },
{ "type": "Feature", "properties": { "osmid": 2442359988, "y": 40.9869499, "x": 29.0216492, "street_count": 3, "highway": null }, "geometry": { "type": "Point", "coordinates": [ 29.0216492, 40.9869499 ] } },
{ "type": "Feature", "properties": { "osmid": 2442360059, "y": 40.9885051, "x": 29.0208766, "street_count": 3, "highway": null }, "geometry": { "type": "Point", "coordinates": [ 29.0208766, 40.9885051 ] } },
{ "type": "Feature", "properties": { "osmid": 2445138883, "y": 40.983186, "x": 29.0324835, "street_count": 3, "highway": null }, "geometry": { "type": "Point", "coordinates": [ 29.0324835, 40.983186 ] } },
{ "type": "Feature", "properties": { "osmid": 2445138893, "y": 40.9835266, "x": 29.026273, "street_count": 4, "highway": null }, "geometry": { "type": "Point", "coordinates": [ 29.026273, 40.9835266 ] } },
{ "type": "Feature", "properties": { "osmid": 2445138906, "y": 40.9844259, "x": 29.0268941, "street_count": 4, "highway": "traffic_signals" }, "geometry": { "type": "Point", "coordinates": [ 29.0268941, 40.9844259 ] } },
{ "type": "Feature", "properties": { "osmid": 2445138907, "y": 40.9844388, "x": 29.0310409, "street_count": 3, "highway": null }, "geometry": { "type": "Point", "coordinates": [ 29.0310409, 40.9844388 ] } },
{ "type": "Feature", "properties": { "osmid": 2445138914, "y": 40.9847179, "x": 29.0302325, "street_count": 4, "highway": null }, "geometry": { "type": "Point", "coordinates": [ 29.0302325, 40.9847179 ] } },
{ "type": "Feature", "properties": { "osmid": 2445138917, "y": 40.9853558, "x": 29.0309917, "street_count": 3, "highway": null }, "geometry": { "type": "Point", "coordinates": [ 29.0309917, 40.9853558 ] } },
{ "type": "Feature", "properties": { "osmid": 2445189205, "y": 40.9901409, "x": 29.0223867, "street_count": 3, "highway": null }, "geometry": { "type": "Point", "coordinates": [ 29.0223867, 40.9901409 ] } },
{ "type": "Feature", "properties": { "osmid": 2446170566, "y": 40.9895258, "x": 29.0217724, "street_count": 3, "highway": null }, "geometry": { "type": "Point", "coordinates": [ 29.0217724, 40.9895258 ] } },
{ "type": "Feature", "properties": { "osmid": 2449949871, "y": 40.981368, "x": 29.0320893, "street_count": 1, "highway": null }, "geometry": { "type": "Point", "coordinates": [ 29.0320893, 40.981368 ] } },
{ "type": "Feature", "properties": { "osmid": 2456379717, "y": 40.9862579, "x": 29.0254396, "street_count": 3, "highway": null }, "geometry": { "type": "Point", "coordinates": [ 29.0254396, 40.9862579 ] } },
{ "type": "Feature", "properties": { "osmid": 2456379718, "y": 40.986507, "x": 29.0256523, "street_count": 3, "highway": null }, "geometry": { "type": "Point", "coordinates": [ 29.0256523, 40.986507 ] } },
{ "type": "Feature", "properties": { "osmid": 2461181361, "y": 40.9883039, "x": 29.022096, "street_count": 3, "highway": null }, "geometry": { "type": "Point", "coordinates": [ 29.022096, 40.9883039 ] } },
{ "type": "Feature", "properties": { "osmid": 2461181362, "y": 40.989058, "x": 29.0224332, "street_count": 3, "highway": null }, "geometry": { "type": "Point", "coordinates": [ 29.0224332, 40.989058 ] } },
{ "type": "Feature", "properties": { "osmid": 2697174220, "y": 40.991302, "x": 29.0236472, "street_count": 3, "highway": null }, "geometry": { "type": "Point", "coordinates": [ 29.0236472, 40.991302 ] } },
{ "type": "Feature", "properties": { "osmid": 2697174247, "y": 40.9907934, "x": 29.0217336, "street_count": 3, "highway": null }, "geometry": { "type": "Point", "coordinates": [ 29.0217336, 40.9907934 ] } },
{ "type": "Feature", "properties": { "osmid": 2697174260, "y": 40.9895182, "x": 29.0214184, "street_count": 3, "highway": null }, "geometry": { "type": "Point", "coordinates": [ 29.0214184, 40.9895182 ] } },
{ "type": "Feature", "properties": { "osmid": 3183586353, "y": 40.9814927, "x": 29.0230452, "street_count": 3, "highway": null }, "geometry": { "type": "Point", "coordinates": [ 29.0230452, 40.9814927 ] } },
{ "type": "Feature", "properties": { "osmid": 3183586375, "y": 40.9843471, "x": 29.0274281, "street_count": 3, "highway": null }, "geometry": { "type": "Point", "coordinates": [ 29.0274281, 40.9843471 ] } },
{ "type": "Feature", "properties": { "osmid": 3496560165, "y": 40.9830868, "x": 29.0272144, "street_count": 3, "highway": null }, "geometry": { "type": "Point", "coordinates": [ 29.0272144, 40.9830868 ] } },
{ "type": "Feature", "properties": { "osmid": 3622463184, "y": 40.9871063, "x": 29.02586, "street_count": 3, "highway": null }, "geometry": { "type": "Point", "coordinates": [ 29.02586, 40.9871063 ] } },
{ "type": "Feature", "properties": { "osmid": 3622463186, "y": 40.9870404, "x": 29.0257533, "street_count": 3, "highway": null }, "geometry": { "type": "Point", "coordinates": [ 29.0257533, 40.9870404 ] } },
{ "type": "Feature", "properties": { "osmid": 3622463191, "y": 40.9871083, "x": 29.0256872, "street_count": 4, "highway": null }, "geometry": { "type": "Point", "coordinates": [ 29.0256872, 40.9871083 ] } },
{ "type": "Feature", "properties": { "osmid": 4086672833, "y": 40.9843965, "x": 29.0270155, "street_count": 3, "highway": null }, "geometry": { "type": "Point", "coordinates": [ 29.0270155, 40.9843965 ] } },
{ "type": "Feature", "properties": { "osmid": 4716733504, "y": 40.9815463, "x": 29.0250528, "street_count": 1, "highway": null }, "geometry": { "type": "Point", "coordinates": [ 29.0250528, 40.9815463 ] } },
{ "type": "Feature", "properties": { "osmid": 4716733505, "y": 40.981445, "x": 29.0261285, "street_count": 3, "highway": null }, "geometry": { "type": "Point", "coordinates": [ 29.0261285, 40.981445 ] } },
{ "type": "Feature", "properties": { "osmid": 4716959678, "y": 40.9804893, "x": 29.0261149, "street_count": 2, "highway": null }, "geometry": { "type": "Point", "coordinates": [ 29.0261149, 40.9804893 ] } },
{ "type": "Feature", "properties": { "osmid": 4785763261, "y": 40.9831567, "x": 29.0306721, "street_count": 3, "highway": null }, "geometry": { "type": "Point", "coordinates": [ 29.0306721, 40.9831567 ] } },
{ "type": "Feature", "properties": { "osmid": 4977300369, "y": 40.9849887, "x": 29.0294403, "street_count": 4, "highway": null }, "geometry": { "type": "Point", "coordinates": [ 29.0294403, 40.9849887 ] } },
{ "type": "Feature", "properties": { "osmid": 6469700739, "y": 40.9852041, "x": 29.0303588, "street_count": 3, "highway": null }, "geometry": { "type": "Point", "coordinates": [ 29.0303588, 40.9852041 ] } },
{ "type": "Feature", "properties": { "osmid": 6512658638, "y": 40.9812318, "x": 29.0232473, "street_count": 3, "highway": null }, "geometry": { "type": "Point", "coordinates": [ 29.0232473, 40.9812318 ] } },
{ "type": "Feature", "properties": { "osmid": 6512658639, "y": 40.9810932, "x": 29.0233697, "street_count": 3, "highway": null }, "geometry": { "type": "Point", "coordinates": [ 29.0233697, 40.9810932 ] } },
{ "type": "Feature", "properties": { "osmid": 6515681980, "y": 40.9851873, "x": 29.0266045, "street_count": 3, "highway": null }, "geometry": { "type": "Point", "coordinates": [ 29.0266045, 40.9851873 ] } },
{ "type": "Feature", "properties": { "osmid": 6522711379, "y": 40.9851385, "x": 29.0266449, "street_count": 3, "highway": null }, "geometry": { "type": "Point", "coordinates": [ 29.0266449, 40.9851385 ] } },
{ "type": "Feature", "properties": { "osmid": 6638746576, "y": 40.9833036, "x": 29.0298435, "street_count": 3, "highway": null }, "geometry": { "type": "Point", "coordinates": [ 29.0298435, 40.9833036 ] } },
{ "type": "Feature", "properties": { "osmid": 6643486504, "y": 40.9840051, "x": 29.0266312, "street_count": 3, "highway": null }, "geometry": { "type": "Point", "coordinates": [ 29.0266312, 40.9840051 ] } },
{ "type": "Feature", "properties": { "osmid": 6643517638, "y": 40.9845389, "x": 29.027647, "street_count": 4, "highway": null }, "geometry": { "type": "Point", "coordinates": [ 29.027647, 40.9845389 ] } },
{ "type": "Feature", "properties": { "osmid": 6644126085, "y": 40.9851571, "x": 29.0266287, "street_count": 3, "highway": null }, "geometry": { "type": "Point", "coordinates": [ 29.0266287, 40.9851571 ] } },
{ "type": "Feature", "properties": { "osmid": 6676601628, "y": 40.9852596, "x": 29.0303256, "street_count": 3, "highway": null }, "geometry": { "type": "Point", "coordinates": [ 29.0303256, 40.9852596 ] } },
{ "type": "Feature", "properties": { "osmid": 6698628575, "y": 40.9905813, "x": 29.0229946, "street_count": 3, "highway": null }, "geometry": { "type": "Point", "coordinates": [ 29.0229946, 40.9905813 ] } },
{ "type": "Feature", "properties": { "osmid": 6788186077, "y": 40.9817485, "x": 29.0274397, "street_count": 3, "highway": null }, "geometry": { "type": "Point", "coordinates": [ 29.0274397, 40.9817485 ] } },
{ "type": "Feature", "properties": { "osmid": 6958868161, "y": 40.9890673, "x": 29.0205206, "street_count": 2, "highway": null }, "geometry": { "type": "Point", "coordinates": [ 29.0205206, 40.9890673 ] } },
{ "type": "Feature", "properties": { "osmid": 6958868171, "y": 40.988787, "x": 29.0206753, "street_count": 3, "highway": null }, "geometry": { "type": "Point", "coordinates": [ 29.0206753, 40.988787 ] } },
{ "type": "Feature", "properties": { "osmid": 6958868172, "y": 40.9887402, "x": 29.0209819, "street_count": 3, "highway": null }, "geometry": { "type": "Point", "coordinates": [ 29.0209819, 40.9887402 ] } },
{ "type": "Feature", "properties": { "osmid": 6959110027, "y": 40.9899241, "x": 29.0216786, "street_count": 3, "highway": null }, "geometry": { "type": "Point", "coordinates": [ 29.0216786, 40.9899241 ] } },
{ "type": "Feature", "properties": { "osmid": 6959248761, "y": 40.9914886, "x": 29.02353, "street_count": 3, "highway": null }, "geometry": { "type": "Point", "coordinates": [ 29.02353, 40.9914886 ] } },
{ "type": "Feature", "properties": { "osmid": 6959361871, "y": 40.9894119, "x": 29.0204267, "street_count": 2, "highway": null }, "geometry": { "type": "Point", "coordinates": [ 29.0204267, 40.9894119 ] } },
{ "type": "Feature", "properties": { "osmid": 6959400234, "y": 40.985852, "x": 29.0213496, "street_count": 3, "highway": null }, "geometry": { "type": "Point", "coordinates": [ 29.0213496, 40.985852 ] } },
{ "type": "Feature", "properties": { "osmid": 6990406280, "y": 40.9901977, "x": 29.0221178, "street_count": 3, "highway": null }, "geometry": { "type": "Point", "coordinates": [ 29.0221178, 40.9901977 ] } },
{ "type": "Feature", "properties": { "osmid": 8077602945, "y": 40.981855, "x": 29.0254016, "street_count": 3, "highway": null }, "geometry": { "type": "Point", "coordinates": [ 29.0254016, 40.981855 ] } },
{ "type": "Feature", "properties": { "osmid": 8077602946, "y": 40.9815197, "x": 29.0253358, "street_count": 3, "highway": null }, "geometry": { "type": "Point", "coordinates": [ 29.0253358, 40.9815197 ] } }
]
}
